STARLINK-32593          
1 61974U 24210R   26068.28724928  .00038891  00000+0  14146-2 0  9996
2 61974  43.0026 182.5093 0002841 295.6911  64.3648 15.27595378 74813
2025-155V               
1 64895U 25155V   26068.85787115  .00013705  00000+0  51002-3 0  9990
2 64895  97.4485  37.2490 0008035 152.8264 207.3397 15.27583301 65579
